GLOBALSTAR M067         
1 32263U 07048A   25081.55843656 -.00000066  00000+0  23294-3 0  9998
2 32263  51.9722 289.4175 0001502 126.3937 258.3602 12.40668550798972
GLOBALSTAR M070         
1 32264U 07048B   25080.87465486 -.00000079  00000+0  13879-3 0  9996
2 32264  51.9769  34.4900 0000338  47.6707 358.6209 12.62314083802644
GLOBALSTAR M066         
1 32265U 07048C   25080.89669446 -.00000049  00000+0  36944-3 0  9996
2 32265  51.9633 278.2412 0002108  63.6100  74.2608 12.35251925804510
GLOBALSTAR M068         
1 32266U 07048D   25081.48552786 -.00000055  00000+0  27011-3 0  9993
2 32266  51.9877 206.5512 0000233 338.7355  95.6444 12.62817799806896
GLOBALSTAR M079         
1 37188U 10054A   25081.24977053 -.00000083  00000+0  11375-3 0  9991
2 37188  52.0051  44.4351 0000690  84.9844  52.9129 12.62271868666150
GLOBALSTAR M074         
1 37189U 10054B   25081.17001014 -.00000085  00000+0  10672-3 0  9990
2 37189  52.0029  44.0152 0000328  99.5099 274.5127 12.62267339666140
GLOBALSTAR M076         
1 37190U 10054C   25080.96434642 -.00000036  00000+0  37902-3 0  9996
2 37190  52.0044  44.7996 0000594 106.0165 296.2125 12.62259896665760
GLOBALSTAR M077         
1 37191U 10054D   25080.88019234 -.00000066  00000+0  20836-3 0  9995
2 37191  52.0103   1.8939 0000611  78.2706 358.7415 12.62271923666862
